[{"OBJECT_NAME":"STARLINK-3769","OBJECT_ID":"2022-041AR","EPOCH":"2026-03-09T11:00:51.391296","MEAN_MOTION":15.08838223,"ECCENTRICITY":0.00013316,"INCLINATION":53.2177,"RA_OF_ASC_NODE":100.1565,"ARG_OF_PERICENTER":96.7246,"MEAN_ANOMALY":263.3898,"EPHEMERIS_TYPE":0,"CLASSIFICATION_TYPE":"U","NORAD_CAT_ID":52300,"ELEMENT_SET_NO":999,"REV_AT_EPOCH":21569,"BSTAR":-1.1850674e-5,"MEAN_MOTION_DOT":-4.76e-6,"MEAN_MOTION_DDOT":0},{"OBJECT_NAME":"DISKSAT A","OBJECT_ID":"2025-305D","EPOCH":"2026-03-09T13:08:58.223040","MEAN_MOTION":15.07741062,"ECCENTRICITY":0.0004082,"INCLINATION":45.0023,"RA_OF_ASC_NODE":251.6019,"ARG_OF_PERICENTER":318.1929,"MEAN_ANOMALY":41.8634,"EPHEMERIS_TYPE":0,"CLASSIFICATION_TYPE":"U","NORAD_CAT_ID":67222,"ELEMENT_SET_NO":999,"REV_AT_EPOCH":1226,"BSTAR":0.00090452,"MEAN_MOTION_DOT":0.00013824,"MEAN_MOTION_DDOT":0}]
